CCSDS_OEM_VERS = 1.0
CREATION_DATE  = 2017-05-11T11:00:47
ORIGINATOR     = GMAT USER

META_START
OBJECT_NAME          = MOPSSat_alt_35785_km_RAAN_0_067
OBJECT_ID            = SatId
CENTER_NAME          = Earth
REF_FRAME            = EME2000
TIME_SYSTEM          = UTC
START_TIME           = 2017-01-01T00:00:00.000
USEABLE_START_TIME   = 2017-01-01T00:00:00.000
USEABLE_STOP_TIME    = 2017-01-02T00:00:00.000
STOP_TIME            = 2017-01-02T00:00:00.000
INTERPOLATION        = Lagrange
INTERPOLATION_DEGREE = 7 
META_STOP


                                                                                   

2017-01-01T15:16:40.000  -2.727661607007523e+04  -3.218956049843510e+04   1.183743505365775e+00   2.345636334064401e+00  -1.984639967050545e+00  -2.377623944839790e-05
2017-01-01T15:16:50.000  -2.725315247025003e+04  -3.220939835493362e+04   1.183505384289375e+00   2.347083342215893e+00  -1.982931087724188e+00  -2.384797746446851e-05
2017-01-01T15:17:00.000  -2.722967440661147e+04  -3.222921911731791e+04   1.183266545759579e+00   2.348529107124968e+00  -1.981221153297838e+00  -2.391973022666049e-05
2017-01-01T15:17:10.000  -2.720618189168705e+04  -3.224902277496418e+04   1.183026989630041e+00   2.349973628016345e+00  -1.979510164680212e+00  -2.399149769623766e-05
2017-01-01T15:17:20.000  -2.718267493798562e+04  -3.226880931728149e+04   1.182786715754564e+00   2.351416904117137e+00  -1.977798122778663e+00  -2.406327983454253e-05
2017-01-01T15:17:30.000  -2.715915355796858e+04  -3.228857873373391e+04   1.182545723986760e+00   2.352858934658463e+00  -1.976085028497095e+00  -2.413507660306317e-05
2017-01-01T15:17:40.000  -2.713561776412177e+04  -3.230833101378098e+04   1.182304014180812e+00   2.354299718871101e+00  -1.974370882741193e+00  -2.420688796322143e-05
2017-01-01T15:17:50.000  -2.711206756864400e+04  -3.232806614713627e+04   1.182061586188212e+00   2.355739256004354e+00  -1.972655686395735e+00  -2.427871387730229e-05
2017-01-01T15:18:00.000  -2.708850298382416e+04  -3.234778412345364e+04   1.181818439861693e+00   2.357177545303156e+00  -1.970939440352063e+00  -2.435055430732408e-05
2017-01-01T15:18:10.000  -2.706492402189885e+04  -3.236748493244604e+04   1.181574575053754e+00   2.358614586016752e+00  -1.969222145497711e+00  -2.442240921546575e-05
2017-01-01T15:18:20.000  -2.704133069560351e+04  -3.238716856342472e+04   1.181329991622350e+00   2.360050377365075e+00  -1.967503802756549e+00  -2.449427856240451e-05
2017-01-01T15:18:30.000  -2.701772301762141e+04  -3.240683500576016e+04   1.181084689425210e+00   2.361484918572371e+00  -1.965784413048647e+00  -2.456616230897826e-05
2017-01-01T15:18:40.000  -2.699410100072570e+04  -3.242648424876297e+04   1.180838668321294e+00   2.362918208858511e+00  -1.964063977300621e+00  -2.463806041575798e-05
2017-01-01T15:18:50.000  -2.697046465740388e+04  -3.244611628199953e+04   1.180591928166946e+00   2.364350247462016e+00  -1.962342496418284e+00  -2.470997284417878e-05
2017-01-01T15:19:00.000  -2.694681400016737e+04  -3.246573109503119e+04   1.180344468819058e+00   2.365781033621031e+00  -1.960619971309197e+00  -2.478189955560907e-05
2017-01-01T15:19:10.000  -2.692314904148025e+04  -3.248532867747447e+04   1.180096290134341e+00   2.367210566577720e+00  -1.958896402877470e+00  -2.485384051156394e-05
2017-01-01T15:19:20.000  -2.689946979378603e+04  -3.250490901897677e+04   1.179847391969566e+00   2.368638845576491e+00  -1.957171792025718e+00  -2.492579567363308e-05
2017-01-01T15:19:30.000  -2.687577626952170e+04  -3.252447210920631e+04   1.179597774181747e+00   2.370065869863264e+00  -1.955446139656083e+00  -2.499776500342879e-05
2017-01-01T15:19:40.000  -2.685206848114607e+04  -3.254401793782882e+04   1.179347436628436e+00   2.371491638683772e+00  -1.953719446672297e+00  -2.506974846250320e-05
2017-01-01T15:19:50.000  -2.682834644115222e+04  -3.256354649449552e+04   1.179096379167821e+00   2.372916151282675e+00  -1.951991713980592e+00  -2.514174601230175e-05
2017-01-01T15:20:00.000  -2.680461016209641e+04  -3.258305776882136e+04   1.178844601659075e+00   2.374339406901990e+00  -1.950262942491799e+00  -2.521375761408400e-05
2017-01-01T15:20:10.000  -2.678085965652560e+04  -3.260255175044384e+04   1.178592103961571e+00   2.375761404785364e+00  -1.948533133116074e+00  -2.528578322914115e-05
2017-01-01T15:20:20.000  -2.675709493729166e+04  -3.262202842876782e+04   1.178338885938274e+00   2.377182144159470e+00  -1.946802286785785e+00  -2.535782281784842e-05
2017-01-01T15:20:30.000  -2.673331601717092e+04  -3.264148779327512e+04   1.178084947451649e+00   2.378601624256584e+00  -1.945070404427797e+00  -2.542987634081420e-05
2017-01-01T15:20:40.000  -2.670952290900540e+04  -3.266092983340917e+04   1.177830288365170e+00   2.380019844306179e+00  -1.943337486973763e+00  -2.550194375845167e-05
2017-01-01T15:20:50.000  -2.668571562515576e+04  -3.268035453902255e+04   1.177574908537474e+00   2.381436803567560e+00  -1.941603535320278e+00  -2.557402503263943e-05
2017-01-01T15:21:00.000  -2.666189417804688e+04  -3.269976189993037e+04   1.177318807828188e+00   2.382852501297300e+00  -1.939868550368613e+00  -2.564612012506415e-05
2017-01-01T15:21:10.000  -2.663805858004450e+04  -3.271915190601192e+04   1.177061986096629e+00   2.384266936756639e+00  -1.938132533015739e+00  -2.571822899759768e-05
2017-01-01T15:21:20.000  -2.661420884376191e+04  -3.273852454695704e+04   1.176804443205018e+00   2.385680109192995e+00  -1.936395484176652e+00  -2.579035161135432e-05
2017-01-01T15:21:30.000  -2.659034498183282e+04  -3.275787981245515e+04   1.176546179016125e+00   2.387092017853742e+00  -1.934657404767845e+00  -2.586248792739409e-05
2017-01-01T15:21:40.000  -2.656646700691056e+04  -3.277721769219412e+04   1.176287193393221e+00   2.388502661986140e+00  -1.932918295707233e+00  -2.593463790671853e-05
2017-01-01T15:21:50.000  -2.654257493189952e+04  -3.279653817567684e+04   1.176027486202669e+00   2.389912040823941e+00  -1.931178157931023e+00  -2.600680150959185e-05
2017-01-01T15:22:00.000  -2.651866876964414e+04  -3.281584125246929e+04   1.175767057310476e+00   2.391320153605501e+00  -1.929436992371056e+00  -2.607897869646004e-05
2017-01-01T15:22:10.000  -2.649474853305114e+04  -3.283512691210266e+04   1.175505906583643e+00   2.392726999566619e+00  -1.927694799963711e+00  -2.615116942758864e-05
2017-01-01T15:22:20.000  -2.647081423454989e+04  -3.285439514450845e+04   1.175244033884268e+00   2.394132577972300e+00  -1.925951581610604e+00  -2.622337366467290e-05
2017-01-01T15:22:30.000  -2.644686588663192e+04  -3.287364593958315e+04   1.174981439075438e+00   2.395536888084979e+00  -1.924207338217875e+00  -2.629559136922780e-05
2017-01-01T15:22:40.000  -2.642290350172917e+04  -3.289287928728698e+04   1.174718122019903e+00   2.396939929171737e+00  -1.922462070687329e+00  -2.636782250294920e-05
2017-01-01T15:22:50.000  -2.639892709252242e+04  -3.291209517739240e+04   1.174454082583396e+00   2.398341700485950e+00  -1.920715779938895e+00  -2.644006702679941e-05
2017-01-01T15:23:00.000  -2.637493667171284e+04  -3.293129359967147e+04   1.174189320632196e+00   2.399742201280956e+00  -1.918968466893993e+00  -2.651232490168064e-05
2017-01-01T15:23:10.000  -2.635093225202124e+04  -3.295047454389495e+04   1.173923836033091e+00   2.401141430809992e+00  -1.917220132475469e+00  -2.658459608844272e-05
2017-01-01T15:23:20.000  -2.632691384642069e+04  -3.296963799965015e+04   1.173657628656029e+00   2.402539388312908e+00  -1.915470777624548e+00  -2.665688054716747e-05
2017-01-01T15:23:30.000  -2.630288146782390e+04  -3.298878395658721e+04   1.173390698370585e+00   2.403936073034123e+00  -1.913720403278058e+00  -2.672917823812527e-05
2017-01-01T15:23:40.000  -2.627883512920846e+04  -3.300791240431993e+04   1.173123045047370e+00   2.405331484215403e+00  -1.911969010377557e+00  -2.680148912139214e-05
2017-01-01T15:23:50.000  -2.625477484306517e+04  -3.302702333286468e+04   1.172854668551887e+00   2.406725621127872e+00  -1.910216599829146e+00  -2.687381315852768e-05
2017-01-01T15:24:00.000  -2.623070062195095e+04  -3.304611673220029e+04   1.172585568750683e+00   2.408118483039908e+00  -1.908463172543747e+00  -2.694615031089303e-05
2017-01-01T15:24:10.000  -2.620661247834626e+04  -3.306519259238178e+04   1.172315745509769e+00   2.409510069225441e+00  -1.906708729426715e+00  -2.701850054008693e-05
2017-01-01T15:24:20.000  -2.618251042503816e+04  -3.308425090323383e+04   1.172045198698847e+00   2.410900378941589e+00  -1.904953271405737e+00  -2.709086380677334e-05
2017-01-01T15:24:30.000  -2.615839447480445e+04  -3.310329165460412e+04   1.171773928187831e+00   2.412289411447140e+00  -1.903196799407823e+00  -2.716324007165188e-05
2017-01-01T15:24:40.000  -2.613426464048403e+04  -3.312231483630663e+04   1.171501933847628e+00   2.413677165998418e+00  -1.901439314364442e+00  -2.723562929523888e-05
2017-01-01T15:24:50.000  -2.611012093495876e+04  -3.314132043813827e+04   1.171229215549966e+00   2.415063641850494e+00  -1.899680817210190e+00  -2.730803143794206e-05
2017-01-01T15:25:00.000  -2.608596337112850e+04  -3.316030844989669e+04   1.170955773167085e+00   2.416448838258482e+00  -1.897921308880976e+00  -2.738044646011572e-05
2017-01-01T15:25:10.000  -2.606179196190252e+04  -3.317927886138732e+04   1.170681606571644e+00   2.417832754478063e+00  -1.896160790313398e+00  -2.745287432209281e-05
2017-01-01T15:25:20.000  -2.603760672011355e+04  -3.319823166249179e+04   1.170406715635762e+00   2.419215389770462e+00  -1.894399262438478e+00  -2.752531498442781e-05
2017-01-01T15:25:30.000  -2.601340765857474e+04  -3.321716684312197e+04   1.170131100231645e+00   2.420596743399105e+00  -1.892636726185818e+00  -2.759776840773983e-05
2017-01-01T15:25:40.000  -2.598919479007988e+04  -3.323608439322010e+04   1.169854760231590e+00   2.421976814629630e+00  -1.890873182483608e+00  -2.767023455270772e-05
